OBJECT_NAME,OBJECT_ID,EPOCH,MEAN_MOTION,ECCENTRICITY,INCLINATION,RA_OF_ASC_NODE,ARG_OF_PERICENTER,MEAN_ANOMALY,EPHEMERIS_TYPE,CLASSIFICATION_TYPE,NORAD_CAT_ID,ELEMENT_SET_NO,REV_AT_EPOCH,BSTAR,MEAN_MOTION_DOT,MEAN_MOTION_DDOT
STARLINK-37376,2026-123AB,2026-06-14T20:00:04.998816,15.85900042,.0000563,53.1557,252.9854,54.8075,245.0676,0,U,69378,999,291,-.10024E-1,-.2153397E-1,0
STARLINK-37383,2026-123AC,2026-06-14T20:00:04.998816,15.86613146,.0000775,53.1548,252.9183,59.7740,272.0976,0,U,69379,999,291,-.99127E-2,-.2198249E-1,0
STARLINK-37411,2026-123AD,2026-06-14T20:00:04.998816,15.85865359,.0000755,53.1556,252.9703,58.4467,248.4648,0,U,69380,999,291,-.1009E-1,-.2162478E-1,0
STARLINK-37427,2026-123AE,2026-06-14T20:00:04.998816,15.86835838,.0000709,53.1552,252.9308,62.3831,263.5976,0,U,69381,999,282,-.94542E-2,-.2131546E-1,0
QIANFAN-165,2026-124A,2026-06-13T19:09:35.953056,14.21216415,.00024,88.9991,2.4245,151.4164,208.7159,0,U,69382,999,133,.37879E-4,.97E-6,0
QIANFAN-166,2026-124B,2026-06-14T01:52:29.439264,14.20451886,.0002134,89.0014,2.3807,113.5942,246.5473,0,U,69383,999,137,.36439832E-4,.93E-6,0
QIANFAN-167,2026-124C,2026-06-13T22:28:45.906816,14.21105494,.00063376,88.9952,2.4146,194.5230,165.5780,0,U,69384,999,135,.37432582E-4,.96E-6,0
QIANFAN-168,2026-124D,2026-06-13T22:27:08.431200,14.21872881,.00023132,89.0066,2.3643,140.1786,219.9575,0,U,69385,999,135,.37407474E-4,.97E-6,0
QIANFAN-169,2026-124E,2026-06-14T01:48:31.391712,14.22762892,.00010338,89.0015,2.3915,310.2027,49.9074,0,U,69386,999,137,.36066853E-4,.95E-6,0
QIANFAN-170,2026-124F,2026-06-14T01:47:03.667200,14.23171609,.00022529,88.9994,2.3837,116.5235,243.6188,0,U,69387,999,137,.36119611E-4,.96E-6,0
QIANFAN-171,2026-124G,2026-06-13T18:59:02.743008,14.20530017,.0022197,88.9981,2.4235,187.5923,172.4935,0,U,69388,999,133,-.86631143E+0,-.1724011E-1,0
QIANFAN-172,2026-124H,2026-06-13T20:34:16.387104,14.29008880,.0003179,88.9977,2.4156,174.9675,185.1552,0,U,69389,999,134,-.61076877E+0,-.1443543E-1,0
QIANFAN-173,2026-124J,2026-06-13T22:23:12.776928,14.24972369,.00021626,89.0007,2.4092,158.8999,201.2283,0,U,69390,999,135,.36702002E-4,.1E-5,0
QIANFAN-174,2026-124K,2026-06-14T00:03:45.274176,14.25618199,.00023663,88.9983,2.3990,170.0899,190.0341,0,U,69391,999,136,.36817554E-4,.102E-5,0
QIANFAN-175,2026-124L,2026-06-14T01:44:43.086624,14.25625629,.00027504,88.9984,2.3909,177.2611,182.8598,0,U,69392,999,137,.36309812E-4,.101E-5,0
QIANFAN-176,2026-124M,2026-06-14T20:16:15.866976,14.25634398,.000196,88.9984,2.3023,174.8297,185.2917,0,U,69393,999,148,.33765E-4,.95E-6,0
QIANFAN-177,2026-124N,2026-06-14T20:15:32.018976,14.25688547,.0002963,88.9981,2.3021,160.1702,199.9607,0,U,69394,999,148,.60364E-5,.29E-6,0
QIANFAN-178,2026-124P,2026-06-14T20:15:45.715968,14.25625932,.0002356,88.9984,2.3023,165.5101,194.6160,0,U,69395,999,148,.23788E-4,.71E-6,0
QIANFAN-179,2026-124Q,2026-06-13T20:38:29.185728,14.22997940,.00043527,88.9978,2.4153,107.3109,252.8559,0,U,69396,999,134,-.94571829E+0,-.1971323E-1,0
QIANFAN-180,2026-124R,2026-06-14T00:01:53.851872,14.26489166,.00023412,88.9984,2.3989,170.3819,189.7420,0,U,69397,999,136,.3682278E-4,.103E-5,0
QIANFAN-181,2026-124S,2026-06-14T03:36:53.227584,14.21115081,.00021189,88.9983,2.3842,140.0514,220.0833,0,U,69398,999,138,.36214652E-4,.93E-6,0
QIANFAN-182,2026-124T,2026-06-13T19:02:53.132928,14.24123720,.0003044,88.9961,2.4186,159.9795,200.1517,0,U,69399,999,133,.37156E-4,.1E-5,0
DTC TEST OBJECT A,2026-128A,2026-06-14T15:54:02.827872,15.55725035,.0008255,54.9942,316.6914,279.4760,80.5343,0,U,69472,999,83,.32887E-3,.22629E-3,0
DTC TEST OBJECT B,2026-128B,2026-06-14T15:52:41.808864,15.56148300,.0008307,55.0033,316.6889,280.4158,79.5942,0,U,69473,999,82,.36804E-3,.25798E-3,0
TJS-25,2026-129A,2026-06-11T11:34:53.014656,1.72502163,.7751889,16.5302,30.5351,199.9639,91.9387,0,U,69474,999,7,.19774E-2,.7407E-4,0
2026-132A,2026-132A,2026-06-14T18:03:01.102176,14.99042288,.0012282,97.6915,229.4597,280.2907,79.6931,0,U,69502,999,41,.51139E-4,.562E-5,0
2026-132B,2026-132B,2026-06-14T18:02:46.891968,14.99133300,.0012204,97.6946,229.4610,282.4744,77.5113,0,U,69503,999,41,.29411E-4,.298E-5,0
BRO-22,2026-132C,2026-06-14T18:01:10.145568,14.99757052,.0013732,97.6886,229.4584,294.0465,65.9320,0,U,69504,999,41,.11401E-3,.1351E-4,0
2026-132D,2026-132D,2026-06-13T09:58:23.387808,15.00977591,.00110344,97.6871,228.1350,315.3023,44.7311,0,U,69505,999,20,.12291978E-3,.1509E-4,0
2026-132E,2026-132E,2026-06-13T22:59:45.049920,14.93464297,.00028233,97.6694,228.6931,327.8572,32.2476,0,U,69506,999,29,.19336817E-3,.1978E-4,0
